{
    "links": {
        "self": "http://www.neowsapp.com/rest/v1/neo/3843058?api_key=iIulBulltgU6a56xZRHN4H3l9WmuAYTsLGpBGhQ2"
    },
    "id": "3843058",
    "neo_reference_id": "3843058",
    "name": "(2019 MN2)",
    "designation": "2019 MN2",
    "nasa_jpl_url": "http://ssd.jpl.nasa.gov/sbdb.cgi?sstr=3843058",
    "absolute_magnitude_h": 23.3,
    "estimated_diameter": {
        "kilometers": {
            "estimated_diameter_min": 0.058150704,
            "estimated_diameter_max": 0.130028927
        },
        "meters": {
            "estimated_diameter_min": 58.1507039646,
            "estimated_diameter_max": 130.0289270043
        },
        "miles": {
            "estimated_diameter_min": 0.0361331611,
            "estimated_diameter_max": 0.0807962044
        },
        "feet": {
            "estimated_diameter_min": 190.7831555951,
            "estimated_diameter_max": 426.6041048727
        }
    },
    "is_potentially_hazardous_asteroid": false,
    "close_approach_data": [
        {
            "close_approach_date": "2019-06-24",
            "close_approach_date_full": "2019-Jun-24 01:37",
            "epoch_date_close_approach": 1561340220000,
            "relative_velocity": {
                "kilometers_per_second": "9.7869301869",
                "kilometers_per_hour": "35232.9486728716",
                "miles_per_hour": "21892.3841350963"
            },
            "miss_distance": {
                "astronomical": "0.0080989315",
                "lunar": "3.1504843535",
                "kilometers": "1211582.901675905",
                "miles": "752842.705321289"
            },
            "orbiting_body": "Earth"
        },
        {
            "close_approach_date": "2019-06-24",
            "close_approach_date_full": "2019-Jun-24 11:22",
            "epoch_date_close_approach": 1561375320000,
            "relative_velocity": {
                "kilometers_per_second": "10.1597562895",
                "kilometers_per_hour": "36575.1226421903",
                "miles_per_hour": "22726.3588439765"
            },
            "miss_distance": {
                "astronomical": "0.0062938173",
                "lunar": "2.4482949297",
                "kilometers": "941541.662249151",
                "miles": "585046.8599382438"
            },
            "orbiting_body": "Moon"
        }
    ],
    "orbital_data": {
        "orbit_id": "6",
        "orbit_determination_date": "2019-07-10 05:36:59",
        "first_observation_date": "2019-06-29",
        "last_observation_date": "2019-07-07",
        "data_arc_in_days": 8,
        "observations_used": 37,
        "orbit_uncertainty": "7",
        "minimum_orbit_intersection": "7.60574E-5",
        "jupiter_tisserand_invariant": "3.715",
        "epoch_osculation": "2459000.5",
        "eccentricity": ".4948759712249915",
        "semi_major_axis": "1.950328852766877",
        "inclination": "10.26590890670549",
        "ascending_node_longitude": "93.52783974428758",
        "orbital_period": "994.8559355095579",
        "perihelion_distance": ".9851579675457453",
        "perihelion_argument": "155.1757541555913",
        "aphelion_distance": "2.915499737988009",
        "perihelion_time": "2458638.968857388634",
        "mean_anomaly": "130.8241793556062",
        "mean_motion": ".3618614385766424",
        "equinox": "J2000",
        "orbit_class": {
            "orbit_class_type": "APO",
            "orbit_class_description": "Near-Earth asteroid orbits which cross the Earth’s orbit similar to that of 1862 Apollo",
            "orbit_class_range": "a (semi-major axis) > 1.0 AU; q (perihelion) < 1.017 AU"
        }
    },
    "is_sentry_object": false
}